ONEWEB-0144             
1 47290U 20100AJ  25334.08279601  .00000370  00000+0  99419-3 0  9999
2 47290  87.8951  30.1877 0001730  87.9546 272.1780 13.12443205238452
ONEWEB-0145             
1 47291U 20100AK  25334.12983503  .00000042  00000+0  82225-4 0  9992
2 47291  87.8958  30.2157 0001740  97.1544 262.9782 13.12444283238652
ONEWEB-0146             
1 47292U 20100AL  25334.12658955 -.00000109  00000+0 -33839-3 0  9995
2 47292  87.8953  30.2029 0002032 106.6160 253.5192 13.12443881238565
ONEWEB-0147             
1 47293U 20100AM  25334.09252245  .00000128  00000+0  31959-3 0  9994
2 47293  87.8957  30.1881 0001967  92.5277 267.6077 13.12442308238452
ONEWEB-0115             
1 48042U 21025A   25334.04748959  .00000064  00000+0  14087-3 0  9993
2 48042  87.8996 359.7966 0001774  95.0584 265.0747 13.13470153227451
ONEWEB-0152             
1 48043U 21025B   25334.06103572  .00000313  00000+0  82272-3 0  9990
2 48043  87.8987 359.8023 0001877  96.8188 263.3154 13.13469975227419
ONEWEB-0153             
1 48044U 21025C   25334.11520163 -.00000106  00000+0 -32512-3 0  9990
2 48044  87.8990 359.7958 0001727  93.9495 266.1832 13.13470162227417
ONEWEB-0154             
1 48045U 21025D   25334.11181492 -.00000252  00000+0 -72401-3 0  9992
2 48045  87.8990 359.7930 0001830  92.7166 267.4172 13.13470262227372
